ONEWEB-0473             
1 51653U 22012AH  26187.95453823  .00000754  00000+0  21223-2 0  9997
2 51653  87.8815  32.3372 0001798  90.5009 269.6324 13.10368451211892
ONEWEB-0474             
1 51654U 22012AJ  26187.94605369  .00000584  00000+0  16369-2 0  9997
2 51654  87.8826  32.3251 0001531  89.3231 270.8072 13.10372461211888
ONEWEB-0475             
1 51655U 22012AK  26188.42135760  .00000030  00000+0  44079-4 0  9992
2 51655  87.9139   1.8466 0001229 102.3656 257.7613 13.17648040216355
ONEWEB-0490             
1 54113U 22138A   26187.69531926  .00000001  00000+0 -28778-4 0  9992
2 54113  87.9191 301.0827 0001957 106.2938 253.8410 13.19725932179409
ONEWEB-0492             
1 54114U 22138B   26187.87221457  .00000088  00000+0  18667-3 0  9997
2 54114  87.9185 301.0477 0002145 105.5755 254.5615 13.19727224179437
ONEWEB-0495             
1 54115U 22138C   26188.30501252  .00000060  00000+0  11872-3 0  9992
2 54115  87.9185 300.9639 0001954 120.9874 239.1451 13.19726333179477
ONEWEB-0497             
1 54116U 22138D   26188.24183374  .00000010  00000+0 -82955-5 0  9995
2 54116  87.9190 300.9697 0001968 101.8446 258.2907 13.19726156179455
ONEWEB-0499             
1 54117U 22138E   26187.84614661 -.00000023  00000+0 -88924-4 0  9995
2 54117  87.9183 301.0564 0001805 106.0710 254.0621 13.19723771179417
ONEWEB-0500             
1 54118U 22138F   26187.84853678 -.00000040  00000+0 -13157-3 0  9993
2 54118  87.9191 301.0514 0002055 100.3677 259.7688 13.19725603179421
ONEWEB-0501             
1 54119U 22138G   26187.87855175  .00000144  00000+0  32686-3 0  9992
2 54119  87.9190 301.0454 0001854 113.0049 247.1280 13.19726329179407
ONEWEB-0502             
1 54120U 22138H   26188.24341319  .00000017  00000+0  99233-5 0  9998
2 54120  87.9193 300.9618 0001796 106.1129 254.0202 13.19725525179474
ONEWEB-0503             
1 54121U 22138J   26187.85327115 -.00000036  00000+0 -12226-3 0  9991
2 54121  87.9195 301.0454 0001774  96.0465 264.0870 13.19726435179410
ONEWEB-0504             
1 54122U 22138K   26188.29553652  .00000025  00000+0  29439-4 0  9999
2 54122  87.9195 300.9621 0001759 105.3441 254.7886 13.19726059179488
ONEWEB-0505             
1 54123U 22138L   26188.29236178  .00000020  00000+0  18240-4 0  9994
2 54123  87.9190 300.9634 0001775 114.6021 245.5297 13.19727334179462
ONEWEB-0506             
1 54124U 22138M   26187.35730954  .00000061  00000+0  12095-3 0  9998
2 54124  87.9192 301.1472 0001833 110.3616 249.7714 13.19724759179330
ONEWEB-0507             
1 54125U 22138N   26188.28763679  .00000010  00000+0 -62771-5 0  9995
2 54125  87.9185 300.9720 0001952 107.2141 252.9205 13.19725903179508
ONEWEB-0508             
1 54126U 22138P   26188.28447987  .00000050  00000+0  93426-4 0  9990
2 54126  87.9185 300.9721 0002035 113.5422 246.5925 13.19725730179488
ONEWEB-0509             
1 54127U 22138Q   26188.25919091  .00000096  00000+0  20663-3 0  9990
2 54127  87.9195 300.9691 0001916 104.9435 255.1910 13.19724061179454
ONEWEB-0510             
1 54128U 22138R   26188.20754714 -.00000248  00000+0 -64225-3 0  9998
2 54128  87.9189 270.4468 0002162  88.0290 272.1091 13.20770939181927
ONEWEB-0511             
1 54129U 22138S   26188.25602800  .00000118  00000+0  26211-3 0  9999
2 54129  87.9190 300.9717 0001665  99.7472 260.3849 13.19727691179487
ONEWEB-0512             
1 54130U 22138T   26188.24814074  .00000071  00000+0  14603-3 0  9998
2 54130  87.9183 300.9767 0001729 108.7324 251.3997 13.19726808179454
ONEWEB-0513             
1 54131U 22138U   26187.86657906  .00000065  00000+0  13000-3 0  9998
2 54131  87.9190 300.9945 0001180 120.7260 239.3990 13.20269593179314
ONEWEB-0514             
1 54132U 22138V   26188.26394157  .00000101  00000+0  21998-3 0  9996
2 54132  87.9192 300.9695 0001985  96.8407 263.2952 13.19726151179475
ONEWEB-0515             
1 54133U 22138W   26187.66380955  .00000034  00000+0  51649-4 0  9993
2 54133  87.9198 270.5504 0002906  94.6004 265.5462 13.20771135181878
ONEWEB-0516             
1 54134U 22138X   26188.31447195  .00000095  00000+0  20587-3 0  9990
2 54134  87.9185 300.9636 0002061 104.7552 255.3809 13.19727225179487
ONEWEB-0517             
1 54135U 22138Y   26188.29395469  .00000032  00000+0  48271-4 0  9996
2 54135  87.9193 300.9614 0001722  94.5093 265.6236 13.19725805179482
ONEWEB-0518             
1 54136U 22138Z   26187.85799113  .00000019  00000+0  15929-4 0  9991
2 54136  87.9185 301.0568 0002134 103.4994 256.6377 13.19723663179422
ONEWEB-0519             
1 54137U 22138AA  26188.26234761  .00000139  00000+0  31494-3 0  9998
2 54137  87.9189 300.9694 0001796  95.9201 264.2137 13.19727342179487
ONEWEB-0520             
1 54138U 22138AB  26188.29711551  .00000027  00000+0  35458-4 0  9990
2 54138  87.9193 300.9622 0001920 109.1602 250.9738 13.19726237179476
ONEWEB-0521             
1 54139U 22138AC  26187.87537331  .00000057  00000+0  10980-3 0  9991
2 54139  87.9194 301.0353 0001846  94.5977 265.5366 13.19726482179369
